NUSAT-47                
1 66743U 25276CF  26199.75391020  .00002855  00000+0  13340-3 0  9995
2 66743  97.4175 272.8639 0000920 183.0747 177.0483 15.20605870 35225
NUSAT-53 (JANE GOODALL) 
1 68432U 26067S   26199.82515144  .00002963  00000+0  14543-3 0  9990
2 68432  97.4577 157.8973 0000307 310.3404  49.7804 15.18870869 16742
NUSAT-54 (BRANCA MARQU*)
1 68442U 26067AC  26199.81880852  .00002727  00000+0  13741-3 0  9998
2 68442  97.4560 157.7287 0003409 346.4001  13.7140 15.18016047 16734
