{"fetched_at":"2026-07-19T07:05:22.787Z","source":"https://celestrak.org/NORAD/elements/gp.php?NAME=NUSAT&FORMAT=JSON","constellation":"satellogic","records":[{"OBJECT_NAME":"NUSAT-47","OBJECT_ID":"2025-276CF","EPOCH":"2026-07-18T18:05:37.841280","CLASSIFICATION_TYPE":"U","MEAN_MOTION":15.2060587,"ECCENTRICITY":0.000092,"INCLINATION":97.4175,"RA_OF_ASC_NODE":272.8639,"ARG_OF_PERICENTER":183.0747,"MEAN_ANOMALY":177.0483,"EPHEMERIS_TYPE":0,"NORAD_CAT_ID":66743,"ELEMENT_SET_NO":999,"REV_AT_EPOCH":3522,"BSTAR":0.0001334,"MEAN_MOTION_DOT":0.00002855,"MEAN_MOTION_DDOT":0},{"OBJECT_NAME":"NUSAT-53 (JANE GOODALL)","OBJECT_ID":"2026-067S","EPOCH":"2026-07-18T19:48:13.084416","CLASSIFICATION_TYPE":"U","MEAN_MOTION":15.18870869,"ECCENTRICITY":0.0000307,"INCLINATION":97.4577,"RA_OF_ASC_NODE":157.8973,"ARG_OF_PERICENTER":310.3404,"MEAN_ANOMALY":49.7804,"EPHEMERIS_TYPE":0,"NORAD_CAT_ID":68432,"ELEMENT_SET_NO":999,"REV_AT_EPOCH":1674,"BSTAR":0.00014543,"MEAN_MOTION_DOT":0.00002963,"MEAN_MOTION_DDOT":0},{"OBJECT_NAME":"NUSAT-54 (BRANCA MARQUES)","OBJECT_ID":"2026-067AC","EPOCH":"2026-07-18T19:39:05.056128","CLASSIFICATION_TYPE":"U","MEAN_MOTION":15.18016047,"ECCENTRICITY":0.0003409,"INCLINATION":97.456,"RA_OF_ASC_NODE":157.7287,"ARG_OF_PERICENTER":346.4001,"MEAN_ANOMALY":13.714,"EPHEMERIS_TYPE":0,"NORAD_CAT_ID":68442,"ELEMENT_SET_NO":999,"REV_AT_EPOCH":1673,"BSTAR":0.00013741,"MEAN_MOTION_DOT":0.00002727,"MEAN_MOTION_DDOT":0}]}
